[{"OBJECT_NAME":"COSMOS 2528","OBJECT_ID":"2018-082A","EPOCH":"2026-03-09T23:25:00.782400","MEAN_MOTION":13.96701963,"ECCENTRICITY":0.0005856,"INCLINATION":67.1502,"RA_OF_ASC_NODE":318.8926,"ARG_OF_PERICENTER":289.9988,"MEAN_ANOMALY":70.0466,"EPHEMERIS_TYPE":0,"CLASSIFICATION_TYPE":"U","NORAD_CAT_ID":43657,"ELEMENT_SET_NO":999,"REV_AT_EPOCH":37609,"BSTAR":4.2400253e-5,"MEAN_MOTION_DOT":-1.6e-7,"MEAN_MOTION_DDOT":0},{"OBJECT_NAME":"DELTA 1 R\/B","OBJECT_ID":"1975-004B","EPOCH":"2026-03-09T16:45:05.960160","MEAN_MOTION":14.06082391,"ECCENTRICITY":0.01866711,"INCLINATION":97.752,"RA_OF_ASC_NODE":137.6452,"ARG_OF_PERICENTER":78.2975,"MEAN_ANOMALY":283.9076,"EPHEMERIS_TYPE":0,"CLASSIFICATION_TYPE":"U","NORAD_CAT_ID":7616,"ELEMENT_SET_NO":999,"REV_AT_EPOCH":60641,"BSTAR":0.00017657486,"MEAN_MOTION_DOT":3.07e-6,"MEAN_MOTION_DDOT":0}]
